PROBA-1                 
1 26958U 01049B   16097.84605744  .00001002  00000-0  92714-4 0  9995
2 26958  97.5071  75.9774 0074189 352.6904   7.3225 14.94685150786337
BIRD 2                  
1 26959U 01049C   16097.83992039  .00003516  00000-0  11641-3 0  9992
2 26959  97.7609  16.8203 0011734 119.0667 241.1750 15.31987546799461
CUTE-1 (CO-55)          
1 27844U 03031E   16097.53890298  .00000113  00000-0  70865-4 0  9994
2 27844  98.6944 106.8499 0010049 163.5264 196.6241 14.21933407662260
CUBESAT XI-IV (CO-57)   
1 27848U 03031J   16097.00012164  .00000094  00000-0  62858-4 0  9999
2 27848  98.7042 106.3755 0009752 173.0043 187.1272 14.21561702662055
GENESIS 1               
1 29252U 06029A   16096.84988250  .00001613  00000-0  93169-4 0  9996
2 29252  64.5046 272.9019 0037761 234.3033 225.6110 15.15824075535524
FALCONSAT-3             
1 30776U 07006E   16097.81277794  .00004810  00000-0  16933-3 0  9992
2 30776  35.4396 308.2571 0001373 323.4906  36.5725 15.28812487501350
GENESIS 2               
1 31789U 07028A   16096.92729738  .00001321  00000-0  78765-4 0  9998
2 31789  64.5047 309.0712 0053135 275.5920  83.9143 15.15084939482642
APRIZESAT 4             
1 35684U 09041D   16097.85712475  .00000247  00000-0  40321-4 0  9999
2 35684  98.0912  30.6946 0048753  63.8394 343.6796 14.78855364360643
APRIZESAT 3             
1 35686U 09041F   16096.89117652  .00000488  00000-0  59148-4 0  9994
2 35686  98.2397  73.0263 0073511 355.8025   4.2564 14.86820546362156
PROBA-2                 
1 36037U 09059B   16097.13046997  .00000040  00000-0  20554-4 0  9998
2 36037  98.2669 291.1527 0012056 238.9488 121.0525 14.52898271340666
APRIZESAT 5             
1 37792U 11044E   16097.85773729  .00000195  00000-0  36594-4 0  9995
2 37792  98.2757 223.5688 0058606   2.0345 358.1090 14.74937746249543
APRIZESAT 6             
1 37793U 11044F   16097.86146648  .00000196  00000-0  39257-4 0  9991
2 37793  98.2390 213.3129 0047574  21.1163  92.0679 14.72036172249072
TET-1                   
1 38710U 12039D   16097.41633520  .00006123  00000-0  15028-3 0  9992
2 38710  97.4975  33.5127 0002534  43.3854 316.7591 15.41073895206883
STSAT-2C                
1 39068U 13003A   16096.97960467  .00039488 -46509-6  47812-3 0  9991
2 39068  80.2298 301.5407 0470259  38.1706 325.1833 14.86872437166939
PROBA-V                 
1 39159U 13021A   16097.82707812 -.00000022  00000-0  93441-5 0  9993
2 39159  98.6347 177.1757 0003919 182.3060 177.8096 14.22916837151540
CUSAT 1                 
1 39266U 13055B   16097.74614227  .00010087  00000-0  29113-3 0  9991
2 39266  80.9857 101.9468 0686611  60.6413 306.1548 14.23489724129779
STPSAT-3                
1 39380U 13064A   16097.32551851  .00003599  00000-0  12065-3 0  9993
2 39380  40.5020 199.5728 0003616 172.2693 187.8176 15.32009070132701
APRIZESAT 7             
1 39416U 13066A   16097.73205481  .00000237  00000-0  34837-4 0  9993
2 39416  97.6940 159.1784 0040143 244.8884 114.8163 14.83506816128518
APRIZESAT 8             
1 39425U 13066K   16097.85321347  .00000194  00000-0  31354-4 0  9999
2 39425  97.6889 155.5066 0050800 252.3074 107.2589 14.80779498128321
BUGSAT-1 (TITA)         
1 40014U 14033E   16097.84520009  .00001046  00000-0  10237-3 0  9998
2 40014  97.9537  10.9560 0032094 334.5953  25.3687 14.94226004 98035
SAUDISAT 4              
1 40016U 14033G   16097.72315948  .00000136  00000-0  27618-4 0  9992
2 40016  97.9148 350.2415 0047160 252.7762 106.8282 14.74990240 96811
TABLETSAT-AURORA        
1 40017U 14033H   16097.89614141  .00000568  00000-0  61275-4 0  9994
2 40017  97.9486   8.5777 0023642 332.4325  27.5652 14.92213636 97909
APRIZESAT 9             
1 40018U 14033J   16097.69545384  .00000142  00000-0  31363-4 0  9998
2 40018  97.9044 344.3724 0070280 264.9848  94.3333 14.69687162 96362
APRIZESAT 10            
1 40019U 14033K   16097.69321878  .00000136  00000-0  31959-4 0  9993
2 40019  97.8992 341.2085 0083141 272.7337  86.4353 14.66768158 96221
AISAT                   
1 40054U 14034B   16097.79871079  .00000929  00000-0  14121-3 0  9998
2 40054  98.1944 185.0211 0012963   9.6791 350.4665 14.76417528 95313
CANX-4                  
1 40055U 14034C   16097.83229642  .00000256  00000-0  46519-4 0  9997
2 40055  98.1948 184.1878 0014673  20.0421 340.1360 14.74399548 95243
CANX-5                  
1 40056U 14034D   16097.83236545  .00000262  00000-0  47406-4 0  9991
2 40056  98.1947 184.1869 0014695  20.3229 339.8561 14.74400547 95246
TDS 1                   
1 40076U 14037H   16097.79734710  .00000172  00000-0  29458-4 0  9995
2 40076  98.3234 186.0545 0006945  44.3115 315.8645 14.81162428 94427
TIANTUO 2               
1 40144U 14053B   16097.79199490  .00002120  00000-0  71232-4 0  9991
2 40144  97.3542 177.7053 0013269  34.2723  81.8596 15.31877892 88157
